GLOBALSTAR M063         
1 26081U 00008A   24236.55149363 -.00000096  00000+0 -19209-3 0  9998
2 26081  51.9939 175.4297 0004624  96.9513  74.7926 11.86159826122253
GLOBALSTAR M062         
1 26082U 00008B   24236.40282562 -.00000051  00000+0  33429-3 0  9992
2 26082  51.9823 251.4641 0007102 195.9481 303.4505 12.43443666459577
GLOBALSTAR M064         
1 26084U 00008D   24236.42984063 -.00000053  00000+0  42562-3 0  9991
2 26084  52.0016 278.0932 0001596 196.3638 163.7143 11.88521530131693
GLOBALSTAR M065         
1 31571U 07020A   24236.59031797 -.00000146  00000+0 -23654-3 0  9999
2 31571  51.9902  52.0346 0010303  12.3307  63.3581 12.61974510795832
GLOBALSTAR M069         
1 31573U 07020C   24236.63457079 -.00000064  00000+0  22395-3 0  9990
2 31573  51.9976   7.6441 0000879 118.6448 254.3706 12.62246655796970
GLOBALSTAR M072         
1 31574U 07020D   24236.34869363 -.00000065  00000+0  21914-3 0  9999
2 31574  52.0081 104.5141 0001129  56.1776 115.8726 12.62262223795200
GLOBALSTAR M071         
1 31576U 07020F   24236.59654155 -.00000071  00000+0  18306-3 0  9997
2 31576  52.0094  12.9770 0001231 137.5211 303.1209 12.62273072458150
